GECAM-B                 
1 47235U 20094B   26058.19405615  .00003224  00000+0  23073-3 0  9996
2 47235  28.9982  10.8844 0010635 257.2071 102.7339 15.01652363285175
STARLINK-34750          
1 65061U 25165F   26068.81190398  .00006930  00000+0  48405-3 0  9999
2 65061  97.6030 147.4231 0001209 103.5750 256.5612 15.05646009 34819
